{
    "links": {
        "self": "http://www.neowsapp.com/rest/v1/neo/3831619?api_key=iIulBulltgU6a56xZRHN4H3l9WmuAYTsLGpBGhQ2"
    },
    "id": "3831619",
    "neo_reference_id": "3831619",
    "name": "(2018 TP3)",
    "designation": "2018 TP3",
    "nasa_jpl_url": "http://ssd.jpl.nasa.gov/sbdb.cgi?sstr=3831619",
    "absolute_magnitude_h": 26.6,
    "estimated_diameter": {
        "kilometers": {
            "estimated_diameter_min": 0.0127219879,
            "estimated_diameter_max": 0.0284472297
        },
        "meters": {
            "estimated_diameter_min": 12.7219878539,
            "estimated_diameter_max": 28.4472296503
        },
        "miles": {
            "estimated_diameter_min": 0.0079050743,
            "estimated_diameter_max": 0.0176762835
        },
        "feet": {
            "estimated_diameter_min": 41.7388066307,
            "estimated_diameter_max": 93.330808926
        }
    },
    "is_potentially_hazardous_asteroid": false,
    "close_approach_data": [
        {
            "close_approach_date": "2018-10-06",
            "close_approach_date_full": "2018-Oct-06 06:56",
            "epoch_date_close_approach": 1538808960000,
            "relative_velocity": {
                "kilometers_per_second": "17.6353759269",
                "kilometers_per_hour": "63487.3533368951",
                "miles_per_hour": "39448.5724109168"
            },
            "miss_distance": {
                "astronomical": "0.0331372628",
                "lunar": "12.8903952292",
                "kilometers": "4957263.932510236",
                "miles": "3080300.9722078168"
            },
            "orbiting_body": "Earth"
        }
    ],
    "orbital_data": {
        "orbit_id": "2",
        "orbit_determination_date": "2018-10-10 06:26:19",
        "first_observation_date": "2018-10-06",
        "last_observation_date": "2018-10-09",
        "data_arc_in_days": 3,
        "observations_used": 21,
        "orbit_uncertainty": "8",
        "minimum_orbit_intersection": ".0331292",
        "jupiter_tisserand_invariant": "3.976",
        "epoch_osculation": "2458398.5",
        "eccentricity": ".390290634871828",
        "semi_major_axis": "1.693842928221639",
        "inclination": "30.64668020928218",
        "ascending_node_longitude": "12.8610800626652",
        "orbital_period": "805.2080903216964",
        "perihelion_distance": "1.032751896392859",
        "perihelion_argument": "357.862984146561",
        "aphelion_distance": "2.354933960050418",
        "perihelion_time": "2458396.018257489605",
        "mean_anomaly": "1.109560763833431",
        "mean_motion": ".4470893975446433",
        "equinox": "J2000",
        "orbit_class": {
            "orbit_class_type": "AMO",
            "orbit_class_description": "Near-Earth asteroid orbits similar to that of 1221 Amor",
            "orbit_class_range": "1.017 AU < q (perihelion) < 1.3 AU"
        }
    },
    "is_sentry_object": false
}